349P/Lemmon,e,5.4897,331.7385,255.7069,3.577273,0.1456720,0.29868278,86.6936,01/12.0/2026,2000,g 14.0,4.0
# From MPEC 2025-W75
350P/McNaught,e,7.3654,65.2965,140.0703,4.081586,0.1195255,0.09489053,352.2906,01/12.0/2026,2000,g 14.0,4.0
# From MPEC 2026-A24
351P/Wiegert-PANSTARRS,e,12.7782,283.3832,352.5309,4.439673,0.1053604,0.29463428,30.7651,01/12.0/2026,2000,g 12.5,4.0
# From MPEC 2025-W75
352P/Skiff,e,20.9972,28.0743,309.3330,6.657037,0.0573829,0.61558949,179.6916,01/12.0/2026,2000,g 11.5,4.0
# From MPEC 2025-W75
353P/McNaught,e,28.4102,121.4571,230.5298,4.170394,0.1157280,0.46965510,340.2790,01/12.0/2026,2000,g 14.5,4.0
# From MPEC 2025-W75
354P/LINEAR,e,5.2512,320.0556,133.0090,2.290199,0.2843769,0.12445746,233.3167,01/12.0/2026,2000,g 15.5,4.0
# From MPEC 2025-W75
355P/LINEAR-NEAT,e,11.0461,51.4214,336.2448,3.466489,0.1527107,0.50786464,99.3950,01/12.0/2026,2000,g 15.5,2.0
# From MPEC 2025-W75
356P/WISE,e,9.6401,160.7448,226.2919,4.150817,0.1165477,0.35567747,342.3500,01/12.0/2026,2000,g 14.0,4.0
# From MPEC 2025-W75
357P/Hill,e,6.3133,44.5341,1.5556,4.454324,0.1048410,0.43587990,291.2409,01/12.0/2026,2000,g 15.5,4.0
# From MPEC 2025-W75
358P/PANSTARRS,e,11.0667,85.6656,299.2942,3.145385,0.1766824,0.23941406,140.4145,01/12.0/2026,2000,g 18.0,4.0
# From MPEC 2025-W75
359P/LONEOS,e,10.2590,149.6894,200.2990,4.643172,0.0985104,0.32297117,301.9398,01/12.0/2026,2000,g 13.5,4.0
# From MPEC 2025-W75
360P/WISE,e,24.1165,2.0501,354.4167,3.699914,0.1384894,0.49971487,64.4062,01/12.0/2026,2000,g 19.5,6.0
# From MPEC 2025-W75
361P/Spacewatch,e,13.8954,203.2092,219.1695,4.932734,0.0899648,0.43939645,246.9087,01/12.0/2026,2000,g 12.0,4.0
# From MPEC 2025-W75
363P/Lemmon,e,5.3938,146.7508,340.7942,3.575765,0.1457641,0.51861629,61.9107,01/12.0/2026,2000,g 17.5,4.0
# From MPEC 2025-W75
364P/PANSTARRS,e,11.8301,45.6659,212.9724,2.903676,0.1991966,0.71596448,194.5704,01/12.0/2026,2000,g 17.0,2.0
# From MPEC 2025-W75
365P/PANSTARRS,e,9.8445,86.2983,67.7678,3.156308,0.1757661,0.58182659,145.0632,01/12.0/2026,2000,g 17.0,4.0
# From MPEC 2025-W75
366P/Spacewatch,e,8.8560,70.7573,152.9341,3.500333,0.1505012,0.34869616,52.0981,01/12.0/2026,2000,g 15.0,4.0
# From MPEC 2025-W75
367P/Catalina,e,8.4580,58.7090,172.6071,3.511531,0.1497819,0.28019993,54.7529,01/12.0/2026,2000,g 17.5,2.0
# From MPEC 2025-W75
368P/NEAT,e,15.4867,257.7826,119.0563,5.536590,0.0756555,0.62521361,202.5129,01/12.0/2026,2000,g 14.0,4.0
# From MPEC 2025-W75
369P/Hill,e,10.3202,47.2670,13.2720,4.377917,0.1075977,0.55580340,284.0229,01/12.0/2026,2000,g 15.0,4.0
# From MPEC 2025-W75
370P/NEAT,e,19.4183,55.0671,356.8255,6.441956,0.0602806,0.61479154,167.0085,01/12.0/2026,2000,g 13.0,4.0
# From MPEC 2025-W75
371P/LINEAR-Skiff,e,17.3880,67.2239,308.6188,4.180552,0.1153064,0.47640101,305.9087,01/12.0/2026,2000,g 16.0,4.0
# From MPEC 2025-W75
372P/McNaught,e,9.4988,325.7595,27.6605,4.513928,0.1027714,0.15101927,271.3282,01/12.0/2026,2000,g 13.5,4.0
# From MPEC 2025-W75
373P/Rinner,e,13.7725,231.9484,221.1540,3.796136,0.1332574,0.39383129,328.5482,01/12.0/2026,2000,g 14.5,4.0
# From MPEC 2025-W75
374P/Larson,e,10.7554,7.8312,51.6364,4.971562,0.0889129,0.46342683,227.0826,01/12.0/2026,2000,g 14.0,4.0
# From MPEC 2025-W75
375P/Hill,e,17.3805,359.7988,119.4992,5.544903,0.0754854,0.66040148,194.3884,01/12.0/2026,2000,g 16.0,4.0
# From MPEC 2025-W75
376P/LONEOS,e,1.1662,312.8528,285.2988,5.753834,0.0714115,0.51393815,165.2210,01/12.0/2026,2000,g 12.5,4.0
# From MPEC 2025-W75
377P/Scotti,e,9.0440,225.8328,354.9859,6.693957,0.0569088,0.25181933,114.4745,01/12.0/2026,2000,g  9.5,4.0
# From MPEC 2025-YF1
378P/McNaught,e,19.1585,93.7923,193.2488,6.285664,0.0625428,0.46280881,120.4460,01/12.0/2026,2000,g 12.0,4.0
# From MPEC 2026-A24
379P/Spacewatch,e,12.4298,183.5094,31.6153,3.484035,0.1515585,0.34998167,353.6484,01/12.0/2026,2000,g 15.0,4.0
# From MPEC 2025-W75
380P/PANSTARRS,e,8.0414,127.6358,87.3902,4.453391,0.1048740,0.33275736,261.5707,01/12.0/2026,2000,g 12.5,4.0
# From MPEC 2025-W75
381P/LINEAR-Spacewatch,e,28.3234,173.8324,173.3358,7.145195,0.0516040,0.68020791,118.7947,01/12.0/2026,2000,g 17.5,2.0
# From MPEC 2025-W75
382P/Larson,e,8.3054,169.4243,162.8461,5.884999,0.0690374,0.26200568,106.5965,01/12.0/2026,2000,g  8.0,4.0
# From MPEC 2025-W75
383P/Christensen,e,12.3203,207.8195,133.7412,3.549590,0.1473794,0.59841535,334.7098,01/12.0/2026,2000,g 18.0,4.0
# From MPEC 2025-W75
384P/Kowalski,e,7.2840,354.1875,37.6951,2.897061,0.1998792,0.61617491,95.9287,01/12.0/2026,2000,g 19.5,4.0
# From MPEC 2025-W75
385P/Hill,e,16.8164,356.9871,44.5135,4.289301,0.1109492,0.40165831,256.1345,01/12.0/2026,2000,g 13.0,4.0
# From MPEC 2025-W75
386P/PANSTARRS,e,15.2488,134.9175,353.1317,4.048170,0.1210085,0.41767903,238.2952,01/12.0/2026,2000,g 14.5,4.0
# From MPEC 2025-W75
387P/Boattini,e,8.9424,259.2106,162.8889,4.797712,0.0937892,0.73680041,217.2797,01/12.0/2026,2000,g 15.0,4.0
# From MPEC 2025-W75
388P/Gibbs,e,23.8683,37.0042,42.3896,5.241023,0.0821448,0.61927061,193.9181,01/12.0/2026,2000,g 13.0,4.0
# From MPEC 2025-W75
389P/SidingSpring,e,160.0753,218.8273,249.2800,5.628760,0.0738049,0.70598337,162.6505,01/12.0/2026,2000,g 16.0,4.0
# From MPEC 2025-W75
390P/Gibbs,e,18.5142,152.1779,232.5908,5.819212,0.0702114,0.70628432,149.0086,01/12.0/2026,2000,g 12.0,4.0
# From MPEC 2025-W75
391P/Kowalski,e,21.2514,124.7076,186.8110,4.693261,0.0969376,0.11832777,277.7185,01/12.0/2026,2000,g  8.0,4.0
# From MPEC 2025-W75
392P/LINEAR,e,4.9252,24.7858,72.0023,6.143542,0.0647256,0.68390084,136.5427,01/12.0/2026,2000,g 14.5,4.0
# From MPEC 2025-W75
393P/Spacewatch-Hill,e,16.7800,36.4045,329.1368,4.802268,0.0936557,0.11871135,212.3668,01/12.0/2026,2000,g 11.0,4.0
# From MPEC 2025-W75
394P/PANSTARRS,e,8.5276,98.0860,54.5133,4.324982,0.1095791,0.36868241,244.6156,01/12.0/2026,2000,g 16.0,2.4
# From MPEC 2025-W75
395P/Catalina-NEAT,e,3.5666,220.9327,100.7979,7.203044,0.0509835,0.41034746,72.5329,01/12.0/2026,2000,g 10.0,4.0
# From MPEC 2025-W75
396P/Leonard,e,5.4441,136.6016,8.3258,6.798405,0.0556024,0.41727541,129.3734,01/12.0/2026,2000,g 12.0,4.0
# From MPEC 2025-W75
397P/Lemmon,e,10.9174,8.1626,14.6227,3.832697,0.1313552,0.40435792,266.9511,01/12.0/2026,2000,g 12.0,4.0
# From MPEC 2025-W75
398P/Boattini,e,11.0284,127.4070,320.3003,3.123573,0.1785363,0.58376426,328.4083,01/12.0/2026,2000,g 15.5,4.0
# From MPEC 2025-W75
399P/PANSTARRS,e,13.3133,207.1021,214.4765,3.793851,0.1333778,0.44711996,225.9687,01/12.0/2026,2000,g 14.0,4.0
# From MPEC 2025-W75
400P/PANSTARRS,e,10.9252,176.3305,238.9814,3.561860,0.1466185,0.40947016,263.2006,01/12.0/2026,2000,g 15.5,2.8
# From MPEC 2025-W75
401P/McNaught,e,12.8020,359.9104,309.3096,5.775668,0.0710069,0.57827346,158.5970,01/12.0/2026,2000,g 12.5,4.0
# From MPEC 2025-W75
402P/LINEAR,e,30.8289,123.0342,327.0712,7.044932,0.0527095,0.43991259,78.4189,01/12.0/2026,2000,g  8.0,4.0
# From MPEC 2025-W75
403P/Catalina,e,12.3135,163.7114,277.8455,5.433785,0.0778127,0.50409143,151.1064,01/12.0/2026,2000,g 12.0,4.0
# From MPEC 2025-W75
404P/Bressi,e,9.8037,260.0345,168.8210,4.715973,0.0962381,0.12378398,77.4584,01/12.0/2026,2000,g 10.0,4.0
# From MPEC 2025-W75
405P/Lemmon,e,9.3742,3.2030,112.3123,3.603146,0.1441057,0.69029267,265.5289,01/12.0/2026,2000,g 17.5,4.0
# From MPEC 2025-W75
406P/Gibbs,e,1.2100,11.4954,352.4339,3.580097,0.1454996,0.54083096,283.0317,01/12.0/2026,2000,g 17.0,4.0
# From MPEC 2025-W75
407P/PANSTARRS-Fuls,e,4.8726,80.2395,92.9739,3.495274,0.1508281,0.37535877,330.6777,01/12.0/2026,2000,g 14.0,4.0
# From MPEC 2025-W75
408P/Novichonok-Gerke,e,19.3478,189.4518,226.7371,4.746973,0.0952969,0.26815340,113.7883,01/12.0/2026,2000,g 11.0,4.0
# From MPEC 2025-W75
409P/LONEOS-Hill,e,17.1553,143.6393,15.0399,6.032490,0.0665211,0.71044806,120.3257,01/12.0/2026,2000,g 14.0,4.0
# From MPEC 2025-W75
410P/NEAT-LINEAR,e,9.3888,139.8917,313.3635,6.656748,0.0573867,0.51161412,95.3812,01/12.0/2026,2000,g 12.5,4.0
# From MPEC 2025-W75
411P/Christensen,e,12.3868,77.6467,46.5911,5.812193,0.0703387,0.58193091,127.4344,01/12.0/2026,2000,g 13.5,4.0
# From MPEC 2025-W75
412P/WISE,e,8.9281,0.8260,155.8245,3.113176,0.1794314,0.47913166,335.1381,01/12.0/2026,2000,g 17.0,4.0
# From MPEC 2025-W75
413P/Larson,e,15.9517,38.9378,186.6802,3.737267,0.1364184,0.41742227,224.2492,01/12.0/2026,2000,g 14.0,4.0
# From MPEC 2026-A24
414P/STEREO,e,23.4067,257.8151,210.7117,2.792366,0.2112251,0.81228304,22.7460,01/12.0/2026,2000,g 19.0,4.0
# From MPEC 2025-W75
415P/Tenagra,e,31.8155,160.2576,345.9278,4.107278,0.1184058,0.19574556,212.1446,01/12.0/2026,2000,g 12.0,4.0
# From MPEC 2025-W75
416P/Scotti,e,3.3642,355.7223,134.4838,4.005737,0.1229364,0.45565704,219.9929,01/12.0/2026,2000,g 15.5,4.0
# From MPEC 2025-W75
417P/NEOWISE,e,11.3474,95.2715,142.1004,3.385503,0.1582229,0.53654529,281.8831,01/12.0/2026,2000,g 16.5,4.0
# From MPEC 2025-W75
418P/LINEAR,e,5.7866,277.2589,307.6576,5.087768,0.0858842,0.66419313,132.9964,01/12.0/2026,2000,g 13.0,4.0
# From MPEC 2025-W75
419P/PANSTARRS,e,2.7914,40.3711,187.7289,3.538119,0.1480967,0.27245447,228.8135,01/12.0/2026,2000,g 12.5,4.0
# From MPEC 2025-W75
420P/Hill,e,14.5258,173.3506,156.4002,5.472454,0.0769894,0.49488044,102.9000,01/12.0/2026,2000,g 11.5,4.0
# From MPEC 2025-W75
421P/McNaught,e,10.0746,55.3106,259.8387,5.073689,0.0862419,0.67440199,156.5726,01/12.0/2026,2000,g 14.0,4.0
# From MPEC 2025-W75
422P/Christensen,e,39.5799,36.0084,304.7287,6.271796,0.0627504,0.50539088,91.8070,01/12.0/2026,2000,g 11.0,4.0
# From MPEC 2025-W75
423P/Lemmon,e,8.3404,33.2999,81.1369,6.185009,0.0640757,0.12278432,100.3380,01/12.0/2026,2000,g  8.0,4.0
# From MPEC 2025-W75
424P/LaSagra,e,8.6820,51.1930,312.5740,4.421644,0.1060055,0.69008210,162.6835,01/12.0/2026,2000,g 17.0,4.0
# From MPEC 2025-W75
425P/Kowalski,e,16.4080,210.0923,201.0230,6.353874,0.0615384,0.54342039,96.8817,01/12.0/2026,2000,g 12.0,4.0
# From MPEC 2025-W75
426P/PANSTARRS,e,17.7840,280.3958,118.3882,3.186122,0.1733047,0.16087243,148.1551,01/12.0/2026,2000,g 13.5,4.0
# From MPEC 2025-X35
